[{"OBJECT_NAME":"COSMOS 2538","OBJECT_ID":"2019-039D","EPOCH":"2026-03-09T23:22:28.343424","MEAN_MOTION":15.19536029,"ECCENTRICITY":0.00437345,"INCLINATION":97.5929,"RA_OF_ASC_NODE":147.7512,"ARG_OF_PERICENTER":31.8471,"MEAN_ANOMALY":328.5393,"EPHEMERIS_TYPE":0,"CLASSIFICATION_TYPE":"U","NORAD_CAT_ID":44424,"ELEMENT_SET_NO":999,"REV_AT_EPOCH":36483,"BSTAR":0.00035711669,"MEAN_MOTION_DOT":7.713e-5,"MEAN_MOTION_DDOT":0},{"OBJECT_NAME":"STARLINK-33608","OBJECT_ID":"2025-065AC","EPOCH":"2026-03-09T12:31:30.859680","MEAN_MOTION":15.2761225,"ECCENTRICITY":4.848e-5,"INCLINATION":42.9988,"RA_OF_ASC_NODE":108.0021,"ARG_OF_PERICENTER":240.5355,"MEAN_ANOMALY":119.5448,"EPHEMERIS_TYPE":0,"CLASSIFICATION_TYPE":"U","NORAD_CAT_ID":63425,"ELEMENT_SET_NO":999,"REV_AT_EPOCH":5281,"BSTAR":0.0011526418,"MEAN_MOTION_DOT":0.00031623,"MEAN_MOTION_DDOT":0}]
